NORAD_CAT_ID,OBJECT_NAME,OBJECT_TYPE,EPOCH,MEAN_MOTION,ECCENTRICITY,INCLINATION,RA_OF_ASC_NODE,ARG_OF_PERICENTER,MEAN_ANOMALY,BSTAR,MEAN_MOTION_DOT,MEAN_MOTION_DDOT,TLE_LINE0,TLE_LINE1,TLE_LINE2,SEMIMAJOR_AXIS,PERIOD,APOGEE,PERIGEE,DECAYED
55426.0,STARLINK-5638,PAYLOAD,2024-03-12 04:07:24,14.98330374,0.0002988,69.9993,118.9279,272.834,87.2477,-4.5791e-05,-6.39e-06,0.0,0 STARLINK-5638,1 55426U 23014AM  24072.17181185 -.00000639  00000-0 -45791-4 0  9999,2 55426  69.9993 118.9279 0002988 272.8340  87.2477 14.98330374 61643,6950.192,96.107,574.133,569.98,0.0
55426.0,STARLINK-5638,PAYLOAD,2024-03-12 20:08:44,14.98343556,0.0002891,69.9993,117.2458,272.4771,87.6057,-0.00023434,-2.889e-05,0.0,0 STARLINK-5638,1 55426U 23014AM  24072.83940668 -.00002889  00000-0 -23434-3 0  9999,2 55426  69.9993 117.2458 0002891 272.4771  87.6057 14.98343556 62680,6950.151,96.106,574.025,570.007,0.0
55426.0,STARLINK-5638,PAYLOAD,2024-03-13 04:09:25,14.98328143,0.0002678,69.9991,116.404,261.3491,98.7364,1.487e-05,8.4e-07,0.0,0 STARLINK-5638,1 55426U 23014AM  24073.17321048  .00000084  00000-0  14870-4 0  9990,2 55426  69.9991 116.4040 0002678 261.3491  98.7364 14.98328143 61795,6950.199,96.107,573.925,570.202,0.0
55426.0,STARLINK-5638,PAYLOAD,2024-03-13 12:10:05,14.98328662,0.0002912,69.999,115.5624,269.2151,90.8674,-2.388e-06,-1.21e-06,0.0,0 STARLINK-5638,1 55426U 23014AM  24073.50701102 -.00000121  00000-0 -23880-5 0  9996,2 55426  69.9990 115.5624 0002912 269.2151  90.8674 14.98328662 62786,6950.197,96.107,574.086,570.038,0.0
55426.0,STARLINK-5638,PAYLOAD,2024-03-13 20:10:45,14.98338433,0.0003101,69.999,114.7204,272.6387,87.4417,-0.00017476,-2.178e-05,0.0,0 STARLINK-5638,1 55426U 23014AM  24073.84080843 -.00002178  00000-0 -17476-3 0  9991,2 55426  69.9990 114.7204 0003101 272.6387  87.4417 14.98338433 62831,6950.167,96.106,574.187,569.877,0.0
55426.0,STARLINK-5638,PAYLOAD,2024-03-14 04:11:26,14.98328546,0.000296,69.9989,113.8788,269.4332,90.6488,1.6344e-05,1.02e-06,0.0,0 STARLINK-5638,1 55426U 23014AM  24074.17461069  .00000102  00000-0  16344-4 0  9998,2 55426  69.9989 113.8788 0002960 269.4332  90.6488 14.98328546 61941,6950.197,96.107,574.12,570.005,0.0
55426.0,STARLINK-5638,PAYLOAD,2024-03-14 05:47:34,14.98328493,0.0002964,69.9989,113.7105,269.4094,90.6725,1.5655e-05,9.4e-07,0.0,0 STARLINK-5638,1 55426U 23014AM  24074.24137076  .00000094  00000-0  15655-4 0  9998,2 55426  69.9989 113.7105 0002964 269.4094  90.6725 14.98328493 62892,6950.198,96.107,574.123,570.003,0.0
55426.0,STARLINK-5638,PAYLOAD,2024-03-14 12:12:06,14.98330433,0.0002971,69.9989,113.0371,269.3428,90.7391,1.3237e-05,6.5e-07,0.0,0 STARLINK-5638,1 55426U 23014AM  24074.50840960  .00000065  00000-0  13237-4 0  9992,2 55426  69.9989 113.0371 0002971 269.3428  90.7391 14.98330433 62930,6950.192,96.107,574.121,569.992,0.0
55426.0,STARLINK-5638,PAYLOAD,2024-03-15 04:13:27,14.98329944,0.0002995,69.9988,111.3537,269.1479,90.9337,3.8322e-05,3.64e-06,0.0,0 STARLINK-5638,1 55426U 23014AM  24075.17600872  .00000364  00000-0  38322-4 0  9996,2 55426  69.9988 111.3537 0002995 269.1479  90.9337 14.98329944 62098,6950.193,96.107,574.14,569.976,0.0
55426.0,STARLINK-5638,PAYLOAD,2024-03-15 12:14:07,14.98332169,0.0003005,69.9988,110.5119,268.967,91.1145,3.4327e-05,3.17e-06,0.0,0 STARLINK-5638,1 55426U 23014AM  24075.50980720  .00000317  00000-0  34327-4 0  9995,2 55426  69.9988 110.5119 0003005 268.9670  91.1145 14.98332169 63081,6950.186,96.107,574.14,569.963,0.0
55426.0,STARLINK-5638,PAYLOAD,2024-03-16 04:15:28,14.98330277,0.0002947,69.999,108.8284,269.2289,90.8532,1.607e-05,9.9e-07,0.0,0 STARLINK-5638,1 55426U 23014AM  24076.17740849  .00000099  00000-0  16070-4 0  9997,2 55426  69.9990 108.8284 0002947 269.2289  90.8532 14.98330277 62242,6950.192,96.107,574.105,570.009,0.0
55426.0,STARLINK-5638,PAYLOAD,2024-03-16 12:16:08,14.98330366,0.0002929,69.999,107.9876,265.4128,94.6697,1.1954e-05,5e-07,0.0,0 STARLINK-5638,1 55426U 23014AM  24076.51120814  .00000050  00000-0  11954-4 0  9992,2 55426  69.9990 107.9876 0002929 265.4128  94.6697 14.98330366 63232,6950.192,96.107,574.092,570.021,0.0
55426.0,STARLINK-5638,PAYLOAD,2024-03-17 04:17:29,14.98328727,0.0002858,69.9991,106.3044,265.4521,94.6311,-1.7083e-05,-2.97e-06,0.0,0 STARLINK-5638,1 55426U 23014AM  24077.17880992 -.00000297  00000-0 -17083-4 0  9999,2 55426  69.9991 106.3044 0002858 265.4521  94.6311 14.98328727 62398,6950.197,96.107,574.048,570.075,0.0
55426.0,STARLINK-5638,PAYLOAD,2024-03-17 12:18:09,14.98327882,0.0002883,69.999,105.4627,266.6627,93.4202,-2.5211e-05,-3.94e-06,0.0,0 STARLINK-5638,1 55426U 23014AM  24077.51261095 -.00000394  00000-0 -25211-4 0  9994,2 55426  69.9990 105.4627 0002883 266.6627  93.4202 14.98327882 63389,6950.199,96.107,574.068,570.061,0.0
55426.0,STARLINK-5638,PAYLOAD,2024-03-18 04:19:29,14.98332723,0.0002973,69.9986,103.7794,266.5976,93.4843,3.6294e-05,3.4e-06,0.0,0 STARLINK-5638,1 55426U 23014AM  24078.18020551  .00000340  00000-0  36294-4 0  9990,2 55426  69.9986 103.7794 0002973 266.5976  93.4843 14.98332723 62544,6950.184,96.107,574.116,569.983,0.0
55426.0,STARLINK-5638,PAYLOAD,2024-03-18 10:44:01,14.9833201,0.0002828,69.999,103.1062,261.947,98.1368,3.8549e-05,3.67e-06,0.0,0 STARLINK-5638,1 55426U 23014AM  24078.44724533  .00000367  00000-0  38549-4 0  9994,2 55426  69.9990 103.1062 0002828 261.9470  98.1368 14.98332010 63520,6950.187,96.107,574.017,570.086,0.0
55426.0,STARLINK-5638,PAYLOAD,2024-03-19 10:46:03,14.98326877,0.0002702,69.9994,100.5817,263.1565,96.9287,2.8604e-05,2.48e-06,0.0,0 STARLINK-5638,1 55426U 23014AM  24079.44864885  .00000248  00000-0  28604-4 0  9999,2 55426  69.9994 100.5817 0002702 263.1565  96.9287 14.98326877 62735,6950.203,96.107,573.945,570.19,0.0
55426.0,STARLINK-5638,PAYLOAD,2024-03-20 10:48:04,14.98331053,0.0002892,69.9988,98.0564,263.7563,96.3267,-1.4095e-05,-2.61e-06,0.0,0 STARLINK-5638,1 55426U 23014AM  24080.45004645 -.00000261  00000-0 -14095-4 0  9998,2 55426  69.9988  98.0564 0002892 263.7563  96.3267 14.98331053 62882,6950.19,96.107,574.065,570.045,0.0
55426.0,STARLINK-5638,PAYLOAD,2024-03-21 10:50:05,14.98324048,0.00031,69.9989,95.5311,266.9939,93.0865,0.00012211,1.364e-05,0.0,0 STARLINK-5638,1 55426U 23014AM  24081.45144754  .00001364  00000-0  12211-3 0  9995,2 55426  69.9989  95.5311 0003100 266.9939  93.0865 14.98324048 63032,6950.211,96.107,574.231,569.922,0.0
55426.0,STARLINK-5638,PAYLOAD,2024-03-22 10:52:05,14.98333874,0.0002963,69.9988,93.0057,268.3372,91.7448,5.9522e-05,6.17e-06,0.0,0 STARLINK-5638,1 55426U 23014AM  24082.45284167  .00000617  00000-0  59522-4 0  9996,2 55426  69.9988  93.0057 0002963 268.3372  91.7448 14.98333874 63189,6950.181,96.107,574.105,569.987,0.0
55426.0,STARLINK-5638,PAYLOAD,2024-03-23 04:29:34,14.98325875,0.0002853,69.9991,91.1543,267.7629,92.3204,-2.7242e-05,-4.18e-06,0.0,0 STARLINK-5638,1 55426U 23014AM  24083.18720983 -.00000418  00000-0 -27242-4 0  9993,2 55426  69.9991  91.1543 0002853 267.7629  92.3204 14.98325875 63299,6950.206,96.107,574.054,570.088,0.0
55426.0,STARLINK-5638,PAYLOAD,2024-03-23 10:54:07,14.98318874,0.0002815,69.9991,90.4806,268.5287,91.5549,0.00010591,1.171e-05,0.0,0 STARLINK-5638,1 55426U 23014AM  24083.45425193  .00001171  00000-0  10591-3 0  9991,2 55426  69.9991  90.4806 0002815 268.5287  91.5549 14.98318874 64273,6950.227,96.108,574.049,570.136,0.0
55426.0,STARLINK-5638,PAYLOAD,2024-03-24 04:31:35,14.98333252,0.0002946,69.9987,88.6279,274.4532,85.629,4.7406e-05,4.73e-06,0.0,0 STARLINK-5638,1 55426U 23014AM  24084.18860326  .00000473  00000-0  47406-4 0  9993,2 55426  69.9987  88.6279 0002946 274.4532  85.6290 14.98333252 63447,6950.183,96.107,574.095,570.0,0.0
55426.0,STARLINK-5638,PAYLOAD,2024-03-24 10:56:07,14.98337076,0.0002705,69.9992,87.9552,262.6954,97.3898,9.3888e-05,1.028e-05,0.0,0 STARLINK-5638,1 55426U 23014AM  24084.45563834  .00001028  00000-0  93888-4 0  9999,2 55426  69.9992  87.9552 0002705 262.6954  97.3898 14.98337076 64420,6950.171,96.107,573.916,570.156,0.0
55426.0,STARLINK-5638,PAYLOAD,2024-03-25 04:33:36,14.98325153,0.0002712,69.9992,86.1034,265.0265,95.0584,5.2921e-05,5.38e-06,0.0,0 STARLINK-5638,1 55426U 23014AM  24085.19000676  .00000538  00000-0  52921-4 0  9999,2 55426  69.9992  86.1034 0002712 265.0265  95.0584 14.98325153 63593,6950.208,96.107,573.958,570.188,0.0
55426.0,STARLINK-5638,PAYLOAD,2024-03-25 09:21:55,14.98387346,0.0002669,69.9992,85.5982,261.6947,98.3909,0.00072605,8.593e-05,0.0,0 STARLINK-5638,1 55426U 23014AM  24085.39022922  .00008593  00000-0  72605-3 0  9998,2 55426  69.9992  85.5982 0002669 261.6947  98.3909 14.98387346 63621,6950.016,96.103,573.736,570.026,0.0
55426.0,STARLINK-5638,PAYLOAD,2024-03-25 17:22:36,14.98382455,0.0001821,70.0018,84.7556,286.7682,73.3277,0.00063534,7.506e-05,0.0,0 STARLINK-5638,1 55426U 23014AM  24085.72402819  .00007506  00000-0  63534-3 0  9996,2 55426  70.0018  84.7556 0001821 286.7682  73.3277 14.98382455 63676,6950.031,96.104,573.161,570.63,0.0
55426.0,STARLINK-5638,PAYLOAD,2024-03-26 04:35:37,14.98317431,0.0002783,69.9993,83.5781,267.2115,92.8725,-0.00024585,-3.024e-05,0.0,0 STARLINK-5638,1 55426U 23014AM  24086.19140412 -.00003024  00000-0 -24585-3 0  9992,2 55426  69.9993  83.5781 0002783 267.2115  92.8725 14.98317431 63749,6950.232,96.108,574.031,570.163,0.0
55426.0,STARLINK-5638,PAYLOAD,2024-03-26 09:24:01,14.98317715,0.0002866,69.9992,83.0732,268.4568,91.6262,-0.00024734,-3.042e-05,0.0,0 STARLINK-5638,1 55426U 23014AM  24086.39168460 -.00003042  00000-0 -24734-3 0  9993,2 55426  69.9992  83.0732 0002866 268.4568  91.6262 14.98317715 64712,6950.231,96.108,574.088,570.104,0.0
55426.0,STARLINK-5638,PAYLOAD,2024-03-26 17:24:41,14.98317038,0.0002907,69.9993,82.2314,270.158,89.9245,-0.00020925,-2.588e-05,0.0,0 STARLINK-5638,1 55426U 23014AM  24086.72548574 -.00002588  00000-0 -20925-3 0  9990,2 55426  69.9993  82.2314 0002907 270.1580  89.9245 14.98317038 64764,6950.233,96.108,574.118,570.078,0.0
